CALSPHERE 1             
1 00900U 64063C   17288.61391208  .00000260  00000-0  27055-3 0  9994
2 00900  90.1477  13.2723 0028962 110.7539 346.5072 13.72980869636533
CALSPHERE 2             
1 00902U 64063E   17288.46390479  .00000016  00000-0  10140-4 0  9995
2 00902  90.1556  15.6182 0019930  62.9071  56.3548 13.52653142428141
LCS 1                   
1 01361U 65034C   17288.57969373  .00000012  00000-0  41833-3 0  9999
2 01361  32.1376 135.5825 0011785 205.4312 154.5606  9.89292782896289
TEMPSAT 1               
1 01512U 65065E   17288.54658854  .00000049  00000-0  79128-4 0  9996
2 01512  89.8292 240.1975 0071113 138.8074 342.0010 13.33404692538035
CALSPHERE 4(A)          
1 01520U 65065H   17288.62050147  .00000070  00000-0  11715-3 0  9996
2 01520  90.0729 123.6864 0070677  35.0073  50.9158 13.35745128539927
OPS 5712 (P/L 160)      
1 02826U 67053A   17288.87296018  .00000762  00000-0  22096-3 0  9993
2 02826  69.9285 320.2988 0009308 247.8353 112.1792 14.48062516606151
OPS 5712 (P/L 153)      
1 02874U 67053H   17288.53271822 -.00000030  00000-0  16867-4 0  9994
2 02874  69.9745  58.7187 0008740 327.3359  32.7205 13.96297824564724
SURCAL 150B             
1 02909U 67053J   17288.59339091  .00001147  00000-0  25061-3 0  9996
2 02909  69.9500  28.4545 0007339 296.5107  63.5279 14.60383955614334
RIGIDSPHERE 2 (LCS 4)   
1 05398U 71067E   17288.56732261  .00000221  00000-0  71821-4 0  9992
2 05398  87.6210 133.3206 0061533 249.0252 110.4354 14.33623835419810
